     3.02           N: GNSS NAV DATA    C: BEIDOU           RINEX VERSION / TYPE
Spider v7.5.1.8670  SMO                 20220121 002545 UTC PGM / RUN BY / DATE
BDSA   1.7695D-08 -1.4901D-08 -2.3842D-07  4.1723D-07       IONOSPHERIC CORR
BDSB   1.0854D+05  3.9322D+05 -3.6045D+06  3.4079D+06       IONOSPHERIC CORR
BDUT  1.8626451492D-09 0.000000000D+00 431945  837          TIME SYSTEM CORR
     4     4   829     6                                    LEAP SECONDS
                                                            END OF HEADER
C45 2022 01 20 06 00 00 6.584028014913D-04 1.005684424626D-11 0.000000000000D+00
     1.000000000000D+00-5.453125000000D+00 4.318037039042D-09 1.193315668810D+00
    -1.797452569008D-07 5.887178704143D-04 4.579778760672D-06 5.282610448837D+03
     3.672000000000D+05-2.095475792885D-08 2.124762159364D+00-1.257285475731D-08
     9.530015805011D-01 2.654062500000D+02 2.007361723930D-01-7.015649394759D-09
    -9.821837787527D-11                    8.370000000000D+02                   
     2.000000000000D+00 0.000000000000D+00-2.720000047418D-08-2.720000047418D-08
     3.672000000000D+05 1.000000000000D+00                                      
C46 2022 01 20 04 00 00-1.239604316652D-04-2.016431466245D-11 0.000000000000D+00
     1.000000000000D+00-5.500000000000D+00 4.399111741549D-09 1.860352506829D+00
    -3.236345946789D-07 8.823173120618D-04 4.376750439405D-06 5.282613508224D+03
     3.600000000000D+05 1.350417733192D-08 2.125337365586D+00 2.514570951462D-08
     9.530321379339D-01 2.671250000000D+02 1.100091749637D-01-7.070651619756D-09
    -6.643133959594D-11                    8.370000000000D+02                   
     2.000000000000D+00 0.000000000000D+00-2.300000012667D-08-2.300000012667D-08
     3.600000000000D+05 1.000000000000D+00                                      
C56 2022 01 19 01 00 00 1.299607101828D-04 3.799627279477D-12 0.000000000000D+00
     2.900000000000D+01 5.868750000000D+01 1.208978916978D-09 2.457763249579D+00
     2.125743776560D-06 4.581383429468D-03 2.644862979650D-05 6.493563993454D+03
     2.628000000000D+05-1.331791281700D-07 2.517593247476D+00-2.030283212662D-07
     9.120457376573D-01-6.000468750000D+02-2.988816838710D+00-1.677212702056D-09
    -1.258266713045D-09                    8.370000000000D+02                   
     2.000000000000D+00 1.000000000000D+00-3.010000071413D-08 0.000000000000D+00
    -3.161400000000D+04 2.900000000000D+01                                      
C57 2022 01 18 20 00 00 1.298927236348D-04 3.801403636317D-12 0.000000000000D+00
     2.900000000000D+01 1.277968750000D+02 3.586577923542D-09 3.034701944523D+00
     6.191432476044D-06 5.848238943145D-04 2.180226147175D-06 5.282625308990D+03
     2.448000000000D+05-3.166496753693D-08-2.251441212695D+00 4.004687070847D-08
     9.763719645314D-01 3.246406250000D+02-5.644390679071D-01-6.963861487463D-09
     1.882221323246D-10                    8.370000000000D+02                   
     2.000000000000D+00 1.000000000000D+00-1.029999996405D-08 0.000000000000D+00
    -3.702000000000D+04 2.900000000000D+01                                      
C58 2022 01 19 10 00 00 2.809066791087D-05 3.907985046681D-13 0.000000000000D+00
     2.900000000000D+01-2.070312500000D+01 3.305494766792D-09 3.558999757483D-01
    -9.997747838497D-07 4.802315961570D-04 9.569805115461D-06 5.282617879868D+03
     2.952000000000D+05-1.164153218269D-08-2.126947333265D+00-9.778887033463D-09
     9.763159625644D-01 1.758125000000D+02 4.195907256379D-02-6.678135378024D-09
     2.464388415557D-11                    8.370000000000D+02                   
     2.000000000000D+00 1.000000000000D+00-8.999999856485D-09 0.000000000000D+00
     2.301000000000D+04 2.800000000000D+01                                      
C59 2022 01 20 06 00 00-3.143213689327D-07-4.796163466381D-14 0.000000000000D+00
     1.000000000000D+00 4.099218750000D+02-7.479954433620D-09 2.106486936139D+00
     1.347530633211D-05 2.812213497236D-04-1.755217090249D-05 6.493383762360D+03
     3.672000000000D+05 2.514570951462D-08-1.438122265896D+00-1.676380634308D-08
     7.366175959939D-02 5.333437500000D+02-2.863272639690D+00 8.595001155243D-09
    -1.600066606988D-10                    8.370000000000D+02                   
     2.000000000000D+00 0.000000000000D+00 4.219999993893D-08 4.219999993893D-08
     3.672004000000D+05 1.000000000000D+00                                      
C60 2022 01 20 06 00 00-1.203734427691D-07 1.598721155460D-14 0.000000000000D+00
     1.000000000000D+00 6.262187500000D+02-2.384742181505D-09-1.422479793433D+00
     2.065580338240D-05 6.577314343303D-05-9.479001164436D-06 6.493446311951D+03
     3.672000000000D+05 2.561137080193D-08-1.725264250741D+00-4.563480615616D-08
     1.178033128323D-01 2.911562500000D+02-9.552104141764D-02 3.409427629109D-09
    -3.339424847759D-10                    8.370000000000D+02                   
     2.000000000000D+00 0.000000000000D+00 4.980000056776D-08 4.980000056776D-08
     3.672004000000D+05 1.000000000000D+00                                      
C29 2022 01 20 07 00 00 5.038335220888D-04 5.120348589571D-12 0.000000000000D+00
     1.000000000000D+00 1.334375000000D+02 3.749442090140D-09-2.059672221958D-01
     6.611458957195D-06 1.255839597434D-04 7.464550435543D-06 5.282620130539D+03
     3.708000000000D+05 7.916241884232D-09-2.092825721426D+00-2.142041921616D-08
     9.646238048648D-01 2.149843750000D+02 7.543870343109D-01-6.810997987827D-09
     2.728685055686D-10                    8.370000000000D+02                   
     2.000000000000D+00 0.000000000000D+00-2.000000026703D-10-2.000000026703D-10
     3.708000000000D+05 1.000000000000D+00                                      
C06 2022 01 20 07 00 00-9.188731200993D-05 6.351541514960D-11 0.000000000000D+00
     1.000000000000D+00 5.373437500000D+01 1.059687004812D-09-3.636306639339D-01
     1.524575054646D-06 2.729485626332D-03 1.720106229186D-05 6.493055173874D+03
     3.708000000000D+05-2.188608050346D-08 1.085176024154D+00-1.797452569008D-07
     9.453670016445D-01-2.859375000000D+02 3.057809493376D+00-1.804718041676D-09
     9.143237833520D-10                    8.370000000000D+02                   
     2.000000000000D+00 0.000000000000D+00 7.999999773745D-09-2.199999959984D-09
     3.708000000000D+05 0.000000000000D+00                                      
C22 2022 01 20 07 00 00-9.591066045687D-04 1.540101379760D-12 0.000000000000D+00
     1.000000000000D+00-1.322187500000D+02 3.529432746063D-09-2.330101935996D+00
    -6.493646651506D-06 4.122467944399D-04 8.619390428066D-06 5.282635883331D+03
     3.708000000000D+05-4.190951585770D-09 2.425912870723D-02-8.009374141693D-08
     9.679090463483D-01 1.871562500000D+02-3.841432696805D-04-6.702422172822D-09
    -1.925080234111D-10                    8.370000000000D+02                   
     2.000000000000D+00 0.000000000000D+00 1.659999959713D-08 1.659999959713D-08
     3.708000000000D+05 1.000000000000D+00                                      
C36 2022 01 20 07 00 00-8.725820807740D-04-1.378985814426D-11 0.000000000000D+00
     1.000000000000D+00-1.812500000000D+00 4.483043714032D-09-2.440151370465D+00
    -8.055940270424D-08 5.531586939469D-04 4.485715180635D-06 5.282608327866D+03
     3.708000000000D+05 2.887099981308D-08 2.123294205921D+00 2.421438694000D-08
     9.490876353438D-01 2.653125000000D+02-1.168479070746D+00-7.114939304387D-09
    -9.428963859692D-11                    8.370000000000D+02                   
     2.000000000000D+00 0.000000000000D+00-2.170000001911D-08-2.170000001911D-08
     3.708000000000D+05 1.000000000000D+00                                      
C09 2022 01 20 07 00 00-4.501951625571D-04-3.271427573281D-11 0.000000000000D+00
     1.000000000000D+00 9.310937500000D+01 1.145404882053D-09-1.478795132107D+00
     2.771150320768D-06 8.631921024062D-03 1.706881448627D-05 6.493571632385D+03
     3.708000000000D+05-2.374872565269D-08 1.128375885316D+00-6.332993507385D-08
     9.502666741698D-01-2.790625000000D+02-2.365259485477D+00-1.843291075332D-09
     9.032519177055D-10                    8.370000000000D+02                   
     2.000000000000D+00 0.000000000000D+00 6.600000101997D-09 3.200000042725D-09
     3.708000000000D+05 0.000000000000D+00                                      
C10 2022 01 20 07 00 00 1.396409934387D-04-1.394440118929D-13 0.000000000000D+00
     1.000000000000D+00-4.846875000000D+01 1.230051283052D-09 2.978121874730D+00
    -1.491513103247D-06 7.659292779863D-03 2.068793401122D-05 6.493130062103D+03
     3.708000000000D+05-1.695007085800D-07 3.066061831816D+00 1.303851604462D-08
     8.834889316031D-01-4.185156250000D+02-2.481752096856D+00-1.893293077870D-09
    -9.211097995454D-10                    8.370000000000D+02                   
     2.000000000000D+00 0.000000000000D+00 5.299999994435D-09 2.399999976532D-09
     3.708000000000D+05 0.000000000000D+00                                      
C40 2022 01 20 07 00 00 2.371767768636D-04 3.512745649914D-12 0.000000000000D+00
     1.000000000000D+00 7.770312500000D+01 5.721667029057D-10-2.324256519116D+00
     2.575106918812D-06 1.769387279637D-03 2.311356365681D-05 6.493870826721D+03
     3.708000000000D+05-1.848675310612D-07-3.097502217640D+00 1.024454832077D-07
     1.004356433145D+00-4.456562500000D+02 3.082334214861D+00-1.463989596218D-09
    -8.143196117416D-10                    8.370000000000D+02                   
     2.000000000000D+00 0.000000000000D+00 1.199999988266D-09 1.199999988266D-09
     3.708000000000D+05 1.000000000000D+00                                      
